[{"OBJECT_NAME":"FLOCK 4H-11","OBJECT_ID":"2025-276BA","EPOCH":"2026-04-04T18:37:38.474400","MEAN_MOTION":15.20712177,"ECCENTRICITY":0.0001696,"INCLINATION":97.4234,"RA_OF_ASC_NODE":169.7331,"ARG_OF_PERICENTER":253.8498,"MEAN_ANOMALY":106.2551,"EPHEMERIS_TYPE":0,"CLASSIFICATION_TYPE":"U","NORAD_CAT_ID":66714,"ELEMENT_SET_NO":999,"REV_AT_EPOCH":1928,"BSTAR":0.00092835,"MEAN_MOTION_DOT":0.00020385,"MEAN_MOTION_DDOT":0},{"OBJECT_NAME":"FLOCK 4H-12","OBJECT_ID":"2025-276BB","EPOCH":"2026-04-04T17:24:08.856864","MEAN_MOTION":15.19620324,"ECCENTRICITY":0.0001943,"INCLINATION":97.422,"RA_OF_ASC_NODE":169.607,"ARG_OF_PERICENTER":176.0811,"MEAN_ANOMALY":184.0439,"EPHEMERIS_TYPE":0,"CLASSIFICATION_TYPE":"U","NORAD_CAT_ID":66715,"ELEMENT_SET_NO":999,"REV_AT_EPOCH":1958,"BSTAR":0.0004445,"MEAN_MOTION_DOT":9.407e-5,"MEAN_MOTION_DDOT":0},{"OBJECT_NAME":"FLOCK 4H-13","OBJECT_ID":"2025-276BC","EPOCH":"2026-04-04T15:26:38.172768","MEAN_MOTION":15.19868199,"ECCENTRICITY":0.0001913,"INCLINATION":97.4255,"RA_OF_ASC_NODE":169.6247,"ARG_OF_PERICENTER":145.3972,"MEAN_ANOMALY":214.7387,"EPHEMERIS_TYPE":0,"CLASSIFICATION_TYPE":"U","NORAD_CAT_ID":66716,"ELEMENT_SET_NO":999,"REV_AT_EPOCH":1926,"BSTAR":0.00046012,"MEAN_MOTION_DOT":9.811e-5,"MEAN_MOTION_DDOT":0},{"OBJECT_NAME":"FLOCK 4H-14","OBJECT_ID":"2025-276BD","EPOCH":"2026-04-04T18:12:36.443232","MEAN_MOTION":15.20171636,"ECCENTRICITY":0.0001707,"INCLINATION":97.4239,"RA_OF_ASC_NODE":169.7527,"ARG_OF_PERICENTER":137.3858,"MEAN_ANOMALY":222.7509,"EPHEMERIS_TYPE":0,"CLASSIFICATION_TYPE":"U","NORAD_CAT_ID":66717,"ELEMENT_SET_NO":999,"REV_AT_EPOCH":1853,"BSTAR":0.00052563,"MEAN_MOTION_DOT":0.00011319,"MEAN_MOTION_DDOT":0},{"OBJECT_NAME":"FLOCK 4H-15","OBJECT_ID":"2025-276BE","EPOCH":"2026-04-04T16:06:28.542816","MEAN_MOTION":15.18749978,"ECCENTRICITY":0.0002818,"INCLINATION":97.4251,"RA_OF_ASC_NODE":169.4296,"ARG_OF_PERICENTER":269.5175,"MEAN_ANOMALY":90.5737,"EPHEMERIS_TYPE":0,"CLASSIFICATION_TYPE":"U","NORAD_CAT_ID":66718,"ELEMENT_SET_NO":999,"REV_AT_EPOCH":1925,"BSTAR":0.00050015,"MEAN_MOTION_DOT":0.00010331,"MEAN_MOTION_DDOT":0},{"OBJECT_NAME":"FLOCK 4H-16","OBJECT_ID":"2025-276BF","EPOCH":"2026-04-04T17:23:58.925184","MEAN_MOTION":15.1893614,"ECCENTRICITY":0.0002942,"INCLINATION":97.4269,"RA_OF_ASC_NODE":169.537,"ARG_OF_PERICENTER":250.7962,"MEAN_ANOMALY":109.2954,"EPHEMERIS_TYPE":0,"CLASSIFICATION_TYPE":"U","NORAD_CAT_ID":66719,"ELEMENT_SET_NO":999,"REV_AT_EPOCH":1926,"BSTAR":0.00049404,"MEAN_MOTION_DOT":0.00010259,"MEAN_MOTION_DDOT":0},{"OBJECT_NAME":"FLOCK 4H-18","OBJECT_ID":"2025-276BH","EPOCH":"2026-04-04T17:29:21.229152","MEAN_MOTION":15.18925158,"ECCENTRICITY":0.0002314,"INCLINATION":97.4213,"RA_OF_ASC_NODE":169.4358,"ARG_OF_PERICENTER":286.7843,"MEAN_ANOMALY":73.3137,"EPHEMERIS_TYPE":0,"CLASSIFICATION_TYPE":"U","NORAD_CAT_ID":66721,"ELEMENT_SET_NO":999,"REV_AT_EPOCH":1926,"BSTAR":0.00049117,"MEAN_MOTION_DOT":0.00010195,"MEAN_MOTION_DDOT":0},{"OBJECT_NAME":"FLOCK 4H-19","OBJECT_ID":"2025-276BJ","EPOCH":"2026-04-04T16:20:31.564896","MEAN_MOTION":15.20255401,"ECCENTRICITY":0.0002373,"INCLINATION":97.4211,"RA_OF_ASC_NODE":169.6566,"ARG_OF_PERICENTER":147.2847,"MEAN_ANOMALY":212.8536,"EPHEMERIS_TYPE":0,"CLASSIFICATION_TYPE":"U","NORAD_CAT_ID":66722,"ELEMENT_SET_NO":999,"REV_AT_EPOCH":1856,"BSTAR":0.00045417,"MEAN_MOTION_DOT":9.793e-5,"MEAN_MOTION_DDOT":0},{"OBJECT_NAME":"FLOCK 4H-20","OBJECT_ID":"2025-276BK","EPOCH":"2026-04-04T18:09:14.661216","MEAN_MOTION":15.20285157,"ECCENTRICITY":0.0002927,"INCLINATION":97.4247,"RA_OF_ASC_NODE":169.7711,"ARG_OF_PERICENTER":169.4159,"MEAN_ANOMALY":190.7139,"EPHEMERIS_TYPE":0,"CLASSIFICATION_TYPE":"U","NORAD_CAT_ID":66723,"ELEMENT_SET_NO":999,"REV_AT_EPOCH":1853,"BSTAR":0.00057457,"MEAN_MOTION_DOT":0.00012422,"MEAN_MOTION_DDOT":0},{"OBJECT_NAME":"FLOCK 4H-21","OBJECT_ID":"2025-276BL","EPOCH":"2026-04-04T16:43:15.309408","MEAN_MOTION":15.19994815,"ECCENTRICITY":0.0002707,"INCLINATION":97.4216,"RA_OF_ASC_NODE":169.6386,"ARG_OF_PERICENTER":167.392,"MEAN_ANOMALY":192.7383,"EPHEMERIS_TYPE":0,"CLASSIFICATION_TYPE":"U","NORAD_CAT_ID":66724,"ELEMENT_SET_NO":999,"REV_AT_EPOCH":1852,"BSTAR":0.00044549,"MEAN_MOTION_DOT":9.531e-5,"MEAN_MOTION_DDOT":0},{"OBJECT_NAME":"FLOCK 4H-22","OBJECT_ID":"2025-276BM","EPOCH":"2026-04-04T18:23:37.778208","MEAN_MOTION":15.19281814,"ECCENTRICITY":0.0001267,"INCLINATION":97.4203,"RA_OF_ASC_NODE":169.5251,"ARG_OF_PERICENTER":288.807,"MEAN_ANOMALY":71.3027,"EPHEMERIS_TYPE":0,"CLASSIFICATION_TYPE":"U","NORAD_CAT_ID":66725,"ELEMENT_SET_NO":999,"REV_AT_EPOCH":1927,"BSTAR":0.00052363,"MEAN_MOTION_DOT":0.00010987,"MEAN_MOTION_DDOT":0},{"OBJECT_NAME":"FLOCK 4H-23","OBJECT_ID":"2025-276BN","EPOCH":"2026-04-04T17:26:20.251392","MEAN_MOTION":15.18899314,"ECCENTRICITY":0.000315,"INCLINATION":97.427,"RA_OF_ASC_NODE":169.5412,"ARG_OF_PERICENTER":239.0487,"MEAN_ANOMALY":121.0438,"EPHEMERIS_TYPE":0,"CLASSIFICATION_TYPE":"U","NORAD_CAT_ID":66726,"ELEMENT_SET_NO":999,"REV_AT_EPOCH":1926,"BSTAR":0.00048399,"MEAN_MOTION_DOT":0.00010038,"MEAN_MOTION_DDOT":0},{"OBJECT_NAME":"FLOCK 4H-24","OBJECT_ID":"2025-276BP","EPOCH":"2026-04-04T18:48:51.574464","MEAN_MOTION":15.18994452,"ECCENTRICITY":0.0002544,"INCLINATION":97.4266,"RA_OF_ASC_NODE":169.616,"ARG_OF_PERICENTER":261.8062,"MEAN_ANOMALY":98.2884,"EPHEMERIS_TYPE":0,"CLASSIFICATION_TYPE":"U","NORAD_CAT_ID":66727,"ELEMENT_SET_NO":999,"REV_AT_EPOCH":1927,"BSTAR":0.00046008,"MEAN_MOTION_DOT":9.564e-5,"MEAN_MOTION_DDOT":0},{"OBJECT_NAME":"FLOCK 4H-25","OBJECT_ID":"2025-276BQ","EPOCH":"2026-04-04T15:25:37.831872","MEAN_MOTION":15.19862162,"ECCENTRICITY":0.0001809,"INCLINATION":97.4226,"RA_OF_ASC_NODE":169.5768,"ARG_OF_PERICENTER":122.1228,"MEAN_ANOMALY":238.0182,"EPHEMERIS_TYPE":0,"CLASSIFICATION_TYPE":"U","NORAD_CAT_ID":66728,"ELEMENT_SET_NO":999,"REV_AT_EPOCH":1854,"BSTAR":0.00043248,"MEAN_MOTION_DOT":9.215e-5,"MEAN_MOTION_DDOT":0},{"OBJECT_NAME":"FLOCK 4H-26","OBJECT_ID":"2025-276BR","EPOCH":"2026-04-04T11:18:28.490976","MEAN_MOTION":15.18764206,"ECCENTRICITY":0.00033359,"INCLINATION":97.4224,"RA_OF_ASC_NODE":169.1906,"ARG_OF_PERICENTER":260.9248,"MEAN_ANOMALY":99.1609,"EPHEMERIS_TYPE":0,"CLASSIFICATION_TYPE":"U","NORAD_CAT_ID":66729,"ELEMENT_SET_NO":999,"REV_AT_EPOCH":1922,"BSTAR":0.00056732473,"MEAN_MOTION_DOT":0.00011735,"MEAN_MOTION_DDOT":0},{"OBJECT_NAME":"FLOCK 4H-27","OBJECT_ID":"2025-276BS","EPOCH":"2026-04-04T17:22:53.721696","MEAN_MOTION":15.19612686,"ECCENTRICITY":0.000146,"INCLINATION":97.4199,"RA_OF_ASC_NODE":169.5785,"ARG_OF_PERICENTER":130.6237,"MEAN_ANOMALY":229.5125,"EPHEMERIS_TYPE":0,"CLASSIFICATION_TYPE":"U","NORAD_CAT_ID":66730,"ELEMENT_SET_NO":999,"REV_AT_EPOCH":1927,"BSTAR":0.00040821,"MEAN_MOTION_DOT":8.63e-5,"MEAN_MOTION_DDOT":0},{"OBJECT_NAME":"FLOCK 4H-28","OBJECT_ID":"2025-276BT","EPOCH":"2026-04-04T17:36:52.334784","MEAN_MOTION":15.18811873,"ECCENTRICITY":0.0002946,"INCLINATION":97.4211,"RA_OF_ASC_NODE":169.4307,"ARG_OF_PERICENTER":261.5558,"MEAN_ANOMALY":98.5342,"EPHEMERIS_TYPE":0,"CLASSIFICATION_TYPE":"U","NORAD_CAT_ID":66731,"ELEMENT_SET_NO":999,"REV_AT_EPOCH":1926,"BSTAR":0.00048985,"MEAN_MOTION_DOT":0.00010135,"MEAN_MOTION_DDOT":0}]
