FLOCK 4H-11             
1 66714U 25276BA  26094.77613975  .00020385  00000+0  92835-3 0  9999
2 66714  97.4234 169.7331 0001696 253.8498 106.2551 15.20712177 19289
FLOCK 4H-12             
1 66715U 25276BB  26094.72510251  .00009407  00000+0  44450-3 0  9990
2 66715  97.4220 169.6070 0001943 176.0811 184.0439 15.19620324 19586
FLOCK 4H-13             
1 66716U 25276BC  26094.64349737  .00009811  00000+0  46012-3 0  9996
2 66716  97.4255 169.6247 0001913 145.3972 214.7387 15.19868199 19267
FLOCK 4H-14             
1 66717U 25276BD  26094.75875513  .00011319  00000+0  52563-3 0  9999
2 66717  97.4239 169.7527 0001707 137.3858 222.7509 15.20171636 18536
FLOCK 4H-15             
1 66718U 25276BE  26094.67116369  .00010331  00000+0  50015-3 0  9991
2 66718  97.4251 169.4296 0002818 269.5175  90.5737 15.18749978 19256
FLOCK 4H-16             
1 66719U 25276BF  26094.72498756  .00010259  00000+0  49404-3 0  9990
2 66719  97.4269 169.5370 0002942 250.7962 109.2954 15.18936140 19263
FLOCK 4H-18             
1 66721U 25276BH  26094.72871793  .00010195  00000+0  49117-3 0  9999
2 66721  97.4213 169.4358 0002314 286.7843  73.3137 15.18925158 19261
FLOCK 4H-19             
1 66722U 25276BJ  26094.68092089  .00009793  00000+0  45417-3 0  9999
2 66722  97.4211 169.6566 0002373 147.2847 212.8536 15.20255401 18568
FLOCK 4H-20             
1 66723U 25276BK  26094.75641969  .00012422  00000+0  57457-3 0  9995
2 66723  97.4247 169.7711 0002927 169.4159 190.7139 15.20285157 18539
FLOCK 4H-21             
1 66724U 25276BL  26094.69670497  .00009531  00000+0  44549-3 0  9992
2 66724  97.4216 169.6386 0002707 167.3920 192.7383 15.19994815 18520
FLOCK 4H-22             
1 66725U 25276BM  26094.76640947  .00010987  00000+0  52363-3 0  9998
2 66725  97.4203 169.5251 0001267 288.8070  71.3027 15.19281814 19270
FLOCK 4H-23             
1 66726U 25276BN  26094.72662328  .00010038  00000+0  48399-3 0  9993
2 66726  97.4270 169.5412 0003150 239.0487 121.0438 15.18899314 19264
FLOCK 4H-24             
1 66727U 25276BP  26094.78393026  .00009564  00000+0  46008-3 0  9993
2 66727  97.4266 169.6160 0002544 261.8062  98.2884 15.18994452 19279
FLOCK 4H-25             
1 66728U 25276BQ  26094.64279898  .00009215  00000+0  43248-3 0  9995
2 66728  97.4226 169.5768 0001809 122.1228 238.0182 15.19862162 18542
FLOCK 4H-26             
1 66729U 25276BR  26094.47116309  .00011735  00000+0  56732-3 0  9996
2 66729  97.4224 169.1906 0003335 260.9248  99.1609 15.18764206 19225
FLOCK 4H-27             
1 66730U 25276BS  26094.72423289  .00008630  00000+0  40821-3 0  9996
2 66730  97.4199 169.5785 0001460 130.6237 229.5125 15.19612686 19277
FLOCK 4H-28             
1 66731U 25276BT  26094.73393906  .00010135  00000+0  48985-3 0  9992
2 66731  97.4211 169.4307 0002946 261.5558  98.5342 15.18811873 19264
